{
  "norad_id": 62429,
  "name": "STARLINK-32418",
  "history": [
    {
      "epoch": "2026-03-28T17:06:59.203872",
      "apogee_km": 483.68936056107486,
      "perigee_km": 482.2874954136296,
      "latitude_deg": 6.616960411364045,
      "longitude_deg": 131.36578207975253,
      "semi_major_axis_km": 6861.125427987352,
      "eccentricity": 0.00010216,
      "inclination_deg": 43.0014,
      "raan_deg": 206.5843,
      "arg_perigee_deg": 268.3751,
      "mean_anomaly_deg": 91.6983,
      "mean_motion_rev_day": 15.27600261
    },
    {
      "epoch": "2026-03-29T00:57:46.119168",
      "apogee_km": 483.40016325157194,
      "perigee_km": 482.5809446216317,
      "latitude_deg": 40.18144906974932,
      "longitude_deg": 162.75124352006242,
      "semi_major_axis_km": 6861.1275539366015,
      "eccentricity": 5.97e-05,
      "inclination_deg": 42.9992,
      "raan_deg": 204.7379,
      "arg_perigee_deg": 217.3895,
      "mean_anomaly_deg": 142.6915,
      "mean_motion_rev_day": 15.27599551
    }
  ]
}